{
  "type": "FeatureCollection",
  "features": [
    {
      "type": "Feature",
      "properties": {
        "norad_id": 34765,
        "name": "IRIDIUM 33 DEB",
        "group": "iridium-33-debris",
        "lat": -27.458065259867162,
        "lon": -141.00741712834767,
        "alt_km": 755.0606371468593,
        "timestamp": "2025-12-02T15:49:07.578734+00:00",
        "meta_object_name": "IRIDIUM 33 DEB",
        "meta_object_id": "1997-051LJ",
        "meta_epoch": "2025-12-02T05:08:41.186976",
        "meta_mean_motion": 14.40418764,
        "meta_eccentricity": 0.00145508,
        "meta_inclination": 86.3401,
        "meta_ra_of_asc_node": 37.2773,
        "meta_arg_of_pericenter": 249.3549,
        "meta_mean_anomaly": 173.3707,
        "meta_ephemeris_type": 0,
        "meta_classification_type": "U",
        "meta_norad_cat_id": 34765,
        "meta_element_set_no": 999,
        "meta_rev_at_epoch": 87462,
        "meta_bstar": 0.00049787542,
        "meta_mean_motion_dot": 1.602e-05,
        "meta_mean_motion_ddot": 0,
        "tle_line1": "1 34765U 97051LJ  25336.21436559  .00001602  00000+0  49788-3 0  9998",
        "tle_line2": "2 34765  86.3401  37.2773 0014550 249.3549 173.3707 14.40418764874623"
      },
      "geometry": {
        "type": "Point",
        "coordinates": [
          -141.00741712834767,
          -27.458065259867162
        ]
      }
    },
    {
      "type": "Feature",
      "properties": {
        "norad_id": 34833,
        "name": "IRIDIUM 33 DEB",
        "group": "iridium-33-debris",
        "lat": -62.5070247299006,
        "lon": -117.7027834192724,
        "alt_km": 731.4937556293326,
        "timestamp": "2025-12-02T15:49:07.578744+00:00",
        "meta_object_name": "IRIDIUM 33 DEB",
        "meta_object_id": "1997-051MH",
        "meta_epoch": "2025-12-02T05:03:01.052640",
        "meta_mean_motion": 14.52266696,
        "meta_eccentricity": 0.00214845,
        "meta_inclination": 86.3939,
        "meta_ra_of_asc_node": 55.5303,
        "meta_arg_of_pericenter": 130.9995,
        "meta_mean_anomaly": 287.1391,
        "meta_ephemeris_type": 0,
        "meta_classification_type": "U",
        "meta_norad_cat_id": 34833,
        "meta_element_set_no": 999,
        "meta_rev_at_epoch": 87562,
        "meta_bstar": 0.0010041369,
        "meta_mean_motion_dot": 4.11e-05,
        "meta_mean_motion_ddot": 0,
        "tle_line1": "1 34833U 97051MH  25336.21042885  .00004110  00000+0  10041-2 0  9995",
        "tle_line2": "2 34833  86.3939  55.5303 0021484 130.9995 287.1391 14.52266696875623"
      },
      "geometry": {
        "type": "Point",
        "coordinates": [
          -117.7027834192724,
          -62.5070247299006
        ]
      }
    },
    {
      "type": "Feature",
      "properties": {
        "norad_id": 34870,
        "name": "IRIDIUM 33 DEB",
        "group": "iridium-33-debris",
        "lat": 66.61674366932056,
        "lon": -32.71566293692203,
        "alt_km": 644.6985151665731,
        "timestamp": "2025-12-02T15:49:07.578754+00:00",
        "meta_object_name": "IRIDIUM 33 DEB",
        "meta_object_id": "1997-051MQ",
        "meta_epoch": "2025-12-01T05:36:37.151712",
        "meta_mean_motion": 14.76055324,
        "meta_eccentricity": 0.0014764,
        "meta_inclination": 86.3102,
        "meta_ra_of_asc_node": 319.3536,
        "meta_arg_of_pericenter": 227.1347,
        "meta_mean_anomaly": 190.7112,
        "meta_ephemeris_type": 0,
        "meta_classification_type": "U",
        "meta_norad_cat_id": 34870,
        "meta_element_set_no": 999,
        "meta_rev_at_epoch": 88741,
        "meta_bstar": 0.0019021,
        "meta_mean_motion_dot": 0.00013168,
        "meta_mean_motion_ddot": 0,
        "tle_line1": "1 34870U 97051MQ  25335.23376333  .00013168  00000+0  19021-2 0  9995",
        "tle_line2": "2 34870  86.3102 319.3536 0014764 227.1347 190.7112 14.76055324887418"
      },
      "geometry": {
        "type": "Point",
        "coordinates": [
          -32.71566293692203,
          66.61674366932056
        ]
      }
    },
    {
      "type": "Feature",
      "properties": {
        "norad_id": 34896,
        "name": "IRIDIUM 33 DEB",
        "group": "iridium-33-debris",
        "lat": -85.13846323813998,
        "lon": -77.81270618727665,
        "alt_km": 665.3473264656122,
        "timestamp": "2025-12-02T15:49:07.578764+00:00",
        "meta_object_name": "IRIDIUM 33 DEB",
        "meta_object_id": "1997-051MY",
        "meta_epoch": "2025-12-02T06:27:15.824160",
        "meta_mean_motion": 14.66099888,
        "meta_eccentricity": 0.0023761,
        "meta_inclination": 86.3285,
        "meta_ra_of_asc_node": 331.3819,
        "meta_arg_of_pericenter": 253.426,
        "meta_mean_anomaly": 121.6385,
        "meta_ephemeris_type": 0,
        "meta_classification_type": "U",
        "meta_norad_cat_id": 34896,
        "meta_element_set_no": 999,
        "meta_rev_at_epoch": 87466,
        "meta_bstar": 0.0012181707,
        "meta_mean_motion_dot": 6.738e-05,
        "meta_mean_motion_ddot": 0,
        "tle_line1": "1 34896U 97051MY  25336.26893315  .00006738  00000+0  12182-2 0  9997",
        "tle_line2": "2 34896  86.3285 331.3819 0023761 253.4260 121.6385 14.66099888874669"
      },
      "geometry": {
        "type": "Point",
        "coordinates": [
          -77.81270618727665,
          -85.13846323813998
        ]
      }
    },
    {
      "type": "Feature",
      "properties": {
        "norad_id": 34926,
        "name": "IRIDIUM 33 DEB",
        "group": "iridium-33-debris",
        "lat": 79.59342934342233,
        "lon": 34.551790539553515,
        "alt_km": 727.5397651173553,
        "timestamp": "2025-12-02T15:49:07.578775+00:00",
        "meta_object_name": "IRIDIUM 33 DEB",
        "meta_object_id": "1997-051NF",
        "meta_epoch": "2025-12-02T02:22:03.194112",
        "meta_mean_motion": 14.5364627,
        "meta_eccentricity": 0.00770014,
        "meta_inclination": 86.1337,
        "meta_ra_of_asc_node": 13.2046,
        "meta_arg_of_pericenter": 329.0462,
        "meta_mean_anomaly": 59.3492,
        "meta_ephemeris_type": 0,
        "meta_classification_type": "U",
        "meta_norad_cat_id": 34926,
        "meta_element_set_no": 999,
        "meta_rev_at_epoch": 86302,
        "meta_bstar": 0.0054377564,
        "meta_mean_motion_dot": 0.00023732,
        "meta_mean_motion_ddot": 0,
        "tle_line1": "1 34926U 97051NF  25336.09864808  .00023732  00000+0  54378-2 0  9993",
        "tle_line2": "2 34926  86.1337  13.2046 0077001 329.0462  59.3492 14.53646270863020"
      },
      "geometry": {
        "type": "Point",
        "coordinates": [
          34.551790539553515,
          79.59342934342233
        ]
      }
    },
    {
      "type": "Feature",
      "properties": {
        "norad_id": 34985,
        "name": "IRIDIUM 33 DEB",
        "group": "iridium-33-debris",
        "lat": -77.06797717768723,
        "lon": 45.12788613850453,
        "alt_km": 746.9607968997789,
        "timestamp": "2025-12-02T15:49:07.578785+00:00",
        "meta_object_name": "IRIDIUM 33 DEB",
        "meta_object_id": "1997-051NR",
        "meta_epoch": "2025-12-02T06:26:29.024736",
        "meta_mean_motion": 14.41932039,
        "meta_eccentricity": 0.00198546,
        "meta_inclination": 86.3697,
        "meta_ra_of_asc_node": 61.3452,
        "meta_arg_of_pericenter": 256.3727,
        "meta_mean_anomaly": 159.0291,
        "meta_ephemeris_type": 0,
        "meta_classification_type": "U",
        "meta_norad_cat_id": 34985,
        "meta_element_set_no": 999,
        "meta_rev_at_epoch": 87024,
        "meta_bstar": 0.0009547559,
        "meta_mean_motion_dot": 3.152e-05,
        "meta_mean_motion_ddot": 0,
        "tle_line1": "1 34985U 97051NR  25336.26839149  .00003152  00000+0  95476-3 0  9996",
        "tle_line2": "2 34985  86.3697  61.3452 0019854 256.3727 159.0291 14.41932039870244"
      },
      "geometry": {
        "type": "Point",
        "coordinates": [
          45.12788613850453,
          -77.06797717768723
        ]
      }
    },
    {
      "type": "Feature",
      "properties": {
        "norad_id": 35051,
        "name": "IRIDIUM 33 DEB",
        "group": "iridium-33-debris",
        "lat": 12.336537063706762,
        "lon": 14.060992175756098,
        "alt_km": 737.0022491524242,
        "timestamp": "2025-12-02T15:49:07.578795+00:00",
        "meta_object_name": "IRIDIUM 33 DEB",
        "meta_object_id": "1997-051NX",
        "meta_epoch": "2025-12-01T09:53:54.581856",
        "meta_mean_motion": 14.47515304,
        "meta_eccentricity": 0.00104451,
        "meta_inclination": 86.3252,
        "meta_ra_of_asc_node": 13.7986,
        "meta_arg_of_pericenter": 121.6547,
        "meta_mean_anomaly": 238.5677,
        "meta_ephemeris_type": 0,
        "meta_classification_type": "U",
        "meta_norad_cat_id": 35051,
        "meta_element_set_no": 999,
        "meta_rev_at_epoch": 86832,
        "meta_bstar": 0.00073041402,
        "meta_mean_motion_dot": 2.705e-05,
        "meta_mean_motion_ddot": 0,
        "tle_line1": "1 35051U 97051NX  25335.41243729  .00002705  00000+0  73041-3 0  9997",
        "tle_line2": "2 35051  86.3252  13.7986 0010445 121.6547 238.5677 14.47515304868325"
      },
      "geometry": {
        "type": "Point",
        "coordinates": [
          14.060992175756098,
          12.336537063706762
        ]
      }
    }
  ]
}